150P/LONEOS,e,18.5076,272.4146,245.6702,3.883485,0.1287869,0.54691704,24.0957,01/28.0/2017,2000,g 13.5,4.0
# From MPC 95214
151P/Helin,e,4.7197,143.1516,216.2292,5.776574,0.0709902,0.57184592,33.9379,01/28.0/2017,2000,g 10.0,6.0
# From MPC 79346
152P/Helin-Lawrence,e,9.8735,91.8714,163.5308,4.489304,0.1036181,0.30818976,172.3695,01/28.0/2017,2000,g 11.5,4.0
# From MPC 46101
153P/Ikeya-Zhang,e,27.9547,93.2716,34.8397,51.28210,0.0026838,0.99006837,0.0000,03/22.3743/2002,2000,g  7.0,4.0
# From MPC 87068
154P/Brewington,e,17.7139,343.1734,47.8885,4.807971,0.0934892,0.67595196,106.9367,01/28.0/2017,2000,g  2.5,12.0
# From MPC 75720
155P/Shoemaker,e,6.3979,97.2367,14.7191,6.583828,0.0583427,0.72689331,300.4349,01/28.0/2017,2000,g 10.0,4.8
# From MPC 92985
156P/Russell-LINEAR,e,21.0558,38.5051,357.8333,3.579726,0.1455222,0.56449799,147.6458,01/28.0/2017,2000,g 15.5,2.0
# From MPC 95214
157P/Tritton,e,7.2833,299.9756,148.9240,3.410416,0.1564923,0.60180443,36.2448,01/28.0/2017,2000,g 10.0,4.0
# From MPC 10028
158P/Kowal-LINEAR,e,7.8961,137.2568,243.3533,4.750283,0.0951974,0.02823122,141.4683,01/28.0/2017,2000,g  9.0,4.0
# From MPC 75721
159P/LONEOS,e,23.4605,55.0292,4.8242,5.862013,0.0694439,0.38171239,326.6560,01/28.0/2017,2000,g 10.0,4.0
# From MPC102101
160P/LINEAR,e,15.8517,334.2804,12.2578,3.757910,0.1352959,0.53115798,219.8042,01/28.0/2017,2000,g 15.5,2.0
# From MPC 75721
161P/Hartley-IRAS,e,95.5815,1.2347,46.9407,7.722241,0.0459292,0.83527375,194.9871,01/28.0/2017,2000,g  8.5,6.0
# From MPC 92985
162P/Siding Spring,e,27.8341,31.1192,356.6899,3.062920,0.1838656,0.59456663,104.0564,01/28.0/2017,2000,g 12.0,4.0
# From MPC102101
163P/NEAT,e,12.7119,102.1094,349.7908,3.767838,0.1347615,0.45219530,236.1132,01/28.0/2017,2000,g 14.5,4.0
# From MPC 94676
164P/Christensen,e,16.2545,88.3125,325.9615,3.659793,0.1407730,0.53965800,291.2367,01/28.0/2017,2000,g 11.0,4.0
# From MPC 75721
165P/LINEAR,e,15.9043,0.5160,126.4394,17.91102,0.0130024,0.61735732,78.9579,01/28.0/2017,2000,g 11.5,2.0
# From MPC 75722
166P/NEAT,e,15.3593,64.5093,322.0181,13.88849,0.0190424,0.37948260,102.4788,01/28.0/2017,2000,g  5.5,4.0
# From MPC 75722
167P/CINEOS,e,19.1061,295.7993,343.4664,16.14532,0.0151927,0.27212469,87.7518,01/28.0/2017,2000,g  9.5,2.0
# From MPC102101
168P/Hergenrother,e,21.9414,356.3203,13.7911,3.600883,0.1442416,0.61670015,227.0868,01/28.0/2017,2000,g 15.5,4.0
# From MPC 94676
169P/NEAT,e,11.2980,176.1165,218.0203,2.603432,0.2346306,0.76766615,252.8399,01/28.0/2017,2000,g 16.0,2.0
# From MPC 89012
170P/Christensen,e,10.1270,142.9208,225.8461,4.197873,0.1145935,0.30373371,98.9364,01/28.0/2017,2000,g 12.0,4.0
# From MPC102102
171P/Spahr,e,21.9385,101.7111,347.1987,3.556731,0.1469358,0.50210881,254.8334,01/28.0/2017,2000,g 13.5,4.0
# From MPC 93588
172P/Yeung,e,11.2372,30.8894,209.1207,4.209715,0.1141104,0.20732308,354.9708,01/28.0/2017,2000,g 13.0,4.0
# From MPC 75722
173P/Mueller,e,16.4991,100.4502,29.6351,5.691813,0.0725819,0.26156850,230.4016,01/28.0/2017,2000,g  7.5,4.0
# From MPC 92985
174P/Echeclus,e,4.3447,173.3357,162.8301,10.68014,0.0282383,0.45547731,18.2875,01/28.0/2017,2000,g  9.4,2.0
# From MPC102102
175P/Hergenrother,e,6.0765,123.5678,56.0961,3.429550,0.1551845,0.43257692,208.6488,01/28.0/2017,2000,g 14.0,4.0
# From MPC 88331
176P/LINEAR,e,0.2346,345.9800,35.3580,3.195942,0.1725066,0.19278912,352.5502,01/28.0/2017,2000,g 15.1,2.0
# From MPC 75723
177P/Barnard,e,31.2147,272.1411,60.5148,24.37852,0.0081883,0.95417672,31.2087,01/28.0/2017,2000,g 15.0,4.0
# From MPC 87068
178P/Hug-Bell,e,10.9786,103.3122,296.7227,3.656856,0.1409426,0.47632579,181.0220,01/28.0/2017,2000,g 13.5,4.0
# From MPC 75723
179P/Jedicke,e,19.8769,115.5367,296.3113,5.946565,0.0679681,0.30506041,227.7368,01/28.0/2017,2000,g  2.5,8.0
# From MPC 10028
180P/NEAT,e,16.8720,84.5687,94.8560,3.857343,0.1300983,0.35463299,53.6550,01/28.0/2017,2000,g 11.0,4.0
# From MPC 89012
181P/Shoemaker-Levy,e,17.4711,35.4553,336.3254,3.864362,0.1297440,0.70290942,125.3837,01/28.0/2017,2000,g 11.5,4.0
# From MPC 88331
182P/LONEOS,e,16.2404,72.7938,53.8783,2.961770,0.1933646,0.65956892,345.7593,01/28.0/2017,2000,g 18.0,4.0
# From NK 2735
183P/Korlevic-Juric,e,18.7540,5.8436,161.1793,4.486392,0.1037190,0.13680523,330.2569,01/28.0/2017,2000,g 12.5,2.0
# From MPC 86232
184P/Lovas,e,4.6107,173.6252,186.7670,3.765758,0.1348731,0.55895467,176.0929,01/28.0/2017,2000,g 13.5,4.0
# From MPC 94676
185P/Petriew,e,13.9942,214.0993,181.9180,3.101087,0.1804817,0.69881048,294.1771,01/28.0/2017,2000,g 15.0,4.0
# From MPC 10028
186P/Garradd,e,28.4699,327.3053,284.2980,4.992583,0.0883519,0.12131889,286.3442,01/28.0/2017,2000,g  7.5,4.0
# From MPC 75724
187P/LINEAR,e,13.5787,110.5852,133.9342,4.598843,0.0999381,0.15774159,310.7853,01/28.0/2017,2000,g  9.0,4.0
# From MPC 10028
188P/LINEAR-Mueller,e,10.5114,358.9813,26.7722,4.383837,0.1073798,0.41486531,357.8478,01/28.0/2017,2000,g 11.5,4.0
# From NK 2724
189P/NEAT,e,20.0650,281.7625,16.1969,2.947074,0.1948128,0.58827489,323.0006,01/28.0/2017,2000,g 19.0,4.0
# From MPC 75724
190P/Mueller,e,2.1727,335.5503,50.4162,4.241220,0.1128412,0.52060570,33.3070,01/28.0/2017,2000,g 13.0,4.0
# From MPC 92277
191P/McNaught,e,8.5944,103.6708,278.7999,3.571975,0.1459961,0.41719821,145.1762,01/28.0/2017,2000,g 13.0,4.0
# From MPC 75724
192P/Shoemaker-Levy,e,24.5152,51.6676,312.9313,6.476899,0.0597934,0.77159946,199.7331,01/28.0/2017,2000,g 15.0,4.0
# From MPC 91618
193P/LINEAR-NEAT,e,10.6869,335.1940,8.4054,3.574481,0.1458426,0.39381151,116.0431,01/28.0/2017,2000,g 14.0,4.0
# From MPC 98566
194P/LINEAR,e,11.1361,351.9855,130.6610,3.998569,0.1232671,0.57565801,40.8778,01/28.0/2017,2000,g 16.0,4.0
# From MPC 75724
195P/Hill,e,36.3479,243.1129,249.7272,6.483936,0.0596961,0.31538322,174.7931,01/28.0/2017,2000,g  8.5,4.0
# From MPC 92985
196P/Tichy,e,19.3816,24.2368,12.1562,3.779254,0.1341513,0.43405811,79.5422,01/28.0/2017,2000,g 13.5,4.0
# From MPC 94676
197P/LINEAR,e,25.5556,66.3951,188.6920,2.865017,0.2032420,0.63003127,285.6391,01/28.0/2017,2000,g 16.5,2.0
# From MPC 65937
198P/ODAS,e,1.3394,358.3336,69.3124,3.600087,0.1442894,0.44314794,261.1566,01/28.0/2017,2000,g 12.5,4.0
# From MPC 75725
199P/Shoemaker,e,24.9117,92.3713,191.4233,5.910113,0.0685978,0.50434448,196.4158,01/28.0/2017,2000,g 10.0,4.0
# From MPC 75725
200P/Larsen,e,12.1063,234.8032,133.9288,4.931338,0.0900030,0.33094900,277.9529,01/28.0/2017,2000,g  9.0,4.0
# From MPC 93588
201P/LONEOS,e,7.0521,35.1776,24.8933,3.452707,0.1536259,0.61474860,114.2590,01/28.0/2017,2000,g 14.0,4.0
# From MPC 75725
202P/Scotti,e,2.1883,194.5224,255.7834,3.770937,0.1345954,0.33212053,31.0714,01/28.0/2017,2000,g 13.5,4.0
# From MPC 75725
203P/Korlevic,e,2.9750,290.3891,155.0970,4.663512,0.0978666,0.31496014,249.1224,01/28.0/2017,2000,g 14.5,2.0
# From MPC 98566
204P/LINEAR-NEAT,e,6.5881,108.9957,355.0743,3.656274,0.1409762,0.47283431,58.2787,01/28.0/2017,2000,g 14.0,4.0
# From MPC 98566
205P/Giacobini,e,15.2852,179.6179,154.1980,3.546208,0.1475903,0.56674846,92.2645,01/28.0/2017,2000,g 13.0,4.0
# From MPC 75725
206P/Barnard-Boattini,e,33.7103,203.6734,181.9040,3.238258,0.1691364,0.64915017,149.0735,01/28.0/2017,2000,g 19.0,4.0
# From MPC 75725
207P/NEAT,e,10.1616,200.5447,271.2733,3.876753,0.1291225,0.75824768,27.2075,01/28.0/2017,2000,g 16.0,4.0
# From MPC101100
208P/McMillan,e,4.4082,36.4142,310.4958,4.052817,0.1208004,0.37215414,25.4003,01/28.0/2017,2000,g 12.5,4.0
# From MPC 90771
209P/LINEAR,e,21.2513,62.7771,152.4517,2.962969,0.1932473,0.67322605,192.7144,01/28.0/2017,2000,g 17.0,2.0
# From MPC 89013
210P/Christensen,e,10.2373,93.8293,345.8245,3.170397,0.1745957,0.83215438,156.2647,01/28.0/2017,2000,g 13.5,4.0
# From MPC 96868
211P/Hill,e,18.8802,117.2137,4.4157,3.559632,0.1467562,0.34000479,53.8305,01/28.0/2017,2000,g 12.5,4.0
# From MPC 75726
212P/NEAT,e,22.4270,98.8805,15.0925,3.917924,0.1270926,0.58024400,17.7385,01/28.0/2017,2000,g 17.0,2.0
# From MPC 88331
213P/Van Ness,e,10.3785,311.3343,5.5294,3.347687,0.1609114,0.40743401,321.4965,01/28.0/2017,2000,g 10.5,4.0
# From MPC 92986
214P/LINEAR,e,15.2051,348.2660,190.2545,3.611824,0.1435867,0.48727228,63.5097,01/28.0/2017,2000,g 13.0,4.0
# From MPC102102
215P/NEAT,e,10.3517,57.6113,258.0231,4.385462,0.1073201,0.18215666,253.3916,01/28.0/2017,2000,g 11.0,4.0
# From MPC 10028
216P/LINEAR,e,9.0472,359.8696,151.5343,3.876121,0.1291541,0.44552846,31.2549,01/28.0/2017,2000,g 13.0,4.0
# From MPC 75726
217P/LINEAR,e,12.8567,125.4546,246.9571,3.955721,0.1252753,0.68770504,338.7576,01/28.0/2017,2000,g 12.0,4.0
# From MPC 95214
218P/LINEAR,e,2.7255,176.0236,59.6710,3.096151,0.1809135,0.62180095,116.8148,01/28.0/2017,2000,g 16.0,4.0
# From MPC 10028
219P/LINEAR,e,11.5286,231.0256,107.4107,3.652666,0.1411852,0.35246412,356.6647,01/28.0/2017,2000,g 11.0,4.0
# From MPC 96868
220P/McNaught,e,8.1254,150.1114,180.6347,3.115354,0.1792433,0.50126616,106.5355,01/28.0/2017,2000,g 15.0,4.0
# From MPC 93589
221P/LINEAR,e,11.4259,229.7467,39.9451,3.460291,0.1531211,0.49204957,86.7141,01/28.0/2017,2000,g 14.5,4.0
# From MPC 92277
222P/LINEAR,e,5.1500,6.8567,346.3384,2.892190,0.2003844,0.71812954,188.4637,01/28.0/2017,2000,g 20.0,4.0
# From MPC102102
223P/Skiff,e,27.0164,346.7953,37.8609,4.154880,0.1163768,0.41490514,275.0985,01/28.0/2017,2000,g 12.0,4.0
# From MPC 75727
224P/LINEAR-NEAT,e,13.4261,40.4742,16.3390,3.412608,0.1563415,0.41584008,38.8283,01/28.0/2017,2000,g 15.5,4.0
# From MPC 75727
225P/LINEAR,e,21.3350,14.1820,3.9213,3.654218,0.1410953,0.63753853,23.1466,01/28.0/2017,2000,g 18.0,4.0
# From MPC101100
226P/Pigott-LINEAR-Kowalski,e,44.0044,54.0067,341.1249,3.770144,0.1346378,0.52883113,19.5036,01/28.0/2017,2000,g 12.5,4.0
# From MPC102956
227P/Catalina-LINEAR,e,6.5270,49.8001,90.2516,3.584420,0.1452365,0.50118049,338.9183,01/28.0/2017,2000,g 16.5,2.0
# From MPC 75728
228P/LINEAR,e,7.9115,31.0097,115.2698,4.176688,0.1154665,0.17794279,228.7174,01/28.0/2017,2000,g 14.5,2.0
# From MPC101100
